NORAD_CAT_ID,OBJECT_NAME,OBJECT_TYPE,EPOCH,MEAN_MOTION,ECCENTRICITY,INCLINATION,RA_OF_ASC_NODE,ARG_OF_PERICENTER,MEAN_ANOMALY,BSTAR,MEAN_MOTION_DOT,MEAN_MOTION_DDOT,TLE_LINE0,TLE_LINE1,TLE_LINE2,SEMIMAJOR_AXIS,PERIOD,APOGEE,PERIGEE,DECAYED
51121.0,STARLINK-3399,PAYLOAD,2023-09-22 11:04:41,15.0884993,0.0001316,53.2177,5.9238,70.8199,289.2936,0.00016165,2.286e-05,0.0,0 STARLINK-3399,1 51121U 22005T   23265.46159302  .00002286  00000-0  16165-3 0  9997,2 51121  53.2177   5.9238 0001316  70.8199 289.2936 15.08849930 94233,6917.85,95.437,540.625,538.805,0.0
51121.0,STARLINK-3399,PAYLOAD,2023-09-22 12:40:04,15.0885208,0.0001335,53.2176,5.6265,71.0078,289.1059,0.00026559,3.943e-05,0.0,0 STARLINK-3399,1 51121U 22005T   23265.52783242  .00003943  00000-0  26559-3 0  9999,2 51121  53.2176   5.6265 0001335  71.0078 289.1059 15.08852080 93132,6917.843,95.437,540.632,538.785,0.0
51121.0,STARLINK-3399,PAYLOAD,2023-09-22 15:50:50,15.08870274,0.0001265,53.2175,5.0312,72.0772,288.0358,0.0011578,0.00018202,0.0,0 STARLINK-3399,1 51121U 22005T   23265.66030850  .00018202  00000-0  11578-2 0  9992,2 51121  53.2175   5.0312 0001265  72.0772 288.0358 15.08870274 94262,6917.788,95.436,540.528,538.778,0.0
51121.0,STARLINK-3399,PAYLOAD,2023-09-22 19:01:36,15.08875875,0.000119,53.2168,4.4364,69.3205,290.7915,0.002083,0.00033051,0.0,0 STARLINK-3399,1 51121U 22005T   23265.79278702  .00033051  00000-0  20830-2 0  9996,2 51121  53.2168   4.4364 0001190  69.3205 290.7915 15.08875875 93171,6917.771,95.435,540.459,538.813,0.0
51121.0,STARLINK-3399,PAYLOAD,2023-09-22 23:47:46,15.08830038,8.69e-05,53.2164,3.5446,73.1237,286.985,4.8551e-05,4.85e-06,0.0,0 STARLINK-3399,1 51121U 22005T   23265.99150941  .00000485  00000-0  48551-4 0  9999,2 51121  53.2164   3.5446 0000869  73.1237 286.9850 15.08830038 94312,6917.911,95.438,540.377,539.175,0.0
51121.0,STARLINK-3399,PAYLOAD,2023-09-23 12:30:51,15.08844787,0.0001184,53.2165,1.1651,83.1746,276.9381,0.00022745,3.334e-05,0.0,0 STARLINK-3399,1 51121U 22005T   23266.52143024  .00003334  00000-0  22745-3 0  9995,2 51121  53.2165   1.1651 0001184  83.1746 276.9381 15.08844787 93281,6917.866,95.437,540.55,538.912,0.0
51121.0,STARLINK-3399,PAYLOAD,2023-09-23 14:06:14,15.08854579,0.0001123,53.2167,0.8679,85.1898,274.9223,0.00046744,7.162e-05,0.0,0 STARLINK-3399,1 51121U 22005T   23266.58766754  .00007162  00000-0  46744-3 0  9990,2 51121  53.2167   0.8679 0001123  85.1898 274.9223 15.08854579 94400,6917.836,95.437,540.478,538.924,0.0
51121.0,STARLINK-3399,PAYLOAD,2023-09-24 10:46:15,15.08841485,0.0001522,53.2169,357.0027,69.5648,290.5508,0.00051224,7.874e-05,0.0,0 STARLINK-3399,1 51121U 22005T   23267.44879579  .00007874  00000-0  51224-3 0  9995,2 51121  53.2169 357.0027 0001522  69.5648 290.5508 15.08841485 94534,6917.876,95.437,540.794,538.688,0.0
51121.0,STARLINK-3399,PAYLOAD,2023-09-24 12:21:38,15.0884713,0.0001348,53.2168,356.7035,87.8363,272.2783,0.00067473,0.00010469,0.0,0 STARLINK-3399,1 51121U 22005T   23267.51503380  .00010469  00000-0  67473-3 0  9994,2 51121  53.2168 356.7035 0001348  87.8363 272.2783 15.08847130 93434,6917.859,95.437,540.656,538.791,0.0
51121.0,STARLINK-3399,PAYLOAD,2023-09-25 12:12:25,15.08855082,0.0001674,53.2179,352.2456,98.8271,261.2911,0.0006606,0.00010245,0.0,0 STARLINK-3399,1 51121U 22005T   23268.50863204  .00010245  00000-0  66060-3 0  9991,2 51121  53.2179 352.2456 0001674  98.8271 261.2911 15.08855082 93588,6917.834,95.437,540.857,538.541,0.0
51121.0,STARLINK-3399,PAYLOAD,2023-09-25 16:58:34,15.088738,0.0001511,53.2182,351.3513,93.4271,266.6894,0.0012555,0.00019768,0.0,0 STARLINK-3399,1 51121U 22005T   23268.70734652  .00019768  00000-0  12555-2 0  9995,2 51121  53.2182 351.3513 0001511  93.4271 266.6894 15.08873800 94721,6917.777,95.435,540.687,538.597,0.0
51121.0,STARLINK-3399,PAYLOAD,2023-09-26 10:27:50,15.08836812,0.0001733,53.219,348.0847,77.2609,282.8576,9.6003e-06,-1.35e-06,0.0,0 STARLINK-3399,1 51121U 22005T   23269.43599549 -.00000135  00000-0  96003-5 0  9992,2 51121  53.2190 348.0847 0001733  77.2609 282.8576 15.08836812 94835,6917.89,95.438,540.954,538.556,0.0
51121.0,STARLINK-3399,PAYLOAD,2023-09-27 11:54:00,15.08850653,0.0001588,53.2182,343.3263,83.6143,276.503,0.00065093,0.0001009,0.0,0 STARLINK-3399,1 51121U 22005T   23270.49583566  .00010090  00000-0  65093-3 0  9995,2 51121  53.2182 343.3263 0001588  83.6143 276.5030 15.08850653 93886,6917.848,95.437,540.811,538.614,0.0
51121.0,STARLINK-3399,PAYLOAD,2023-09-28 10:09:24,15.08836973,0.0001437,53.2175,339.1616,88.2593,271.8564,0.00010751,1.423e-05,0.0,0 STARLINK-3399,1 51121U 22005T   23271.42320058  .00001423  00000-0  10751-3 0  9995,2 51121  53.2175 339.1616 0001437  88.2593 271.8564 15.08836973 95135,6917.89,95.438,540.749,538.761,0.0
51121.0,STARLINK-3399,PAYLOAD,2023-09-29 11:35:34,15.08843247,0.0001484,53.2175,334.4037,77.4613,282.6545,0.00029966,4.485e-05,0.0,0 STARLINK-3399,1 51121U 22005T   23272.48304240  .00004485  00000-0  29966-3 0  9996,2 51121  53.2175 334.4037 0001484  77.4613 282.6545 15.08843247 95293,6917.87,95.437,540.762,538.709,0.0
51121.0,STARLINK-3399,PAYLOAD,2023-09-29 13:10:57,15.08849575,0.0001475,53.2177,334.1056,87.7921,272.324,0.00045177,6.911e-05,0.0,0 STARLINK-3399,1 51121U 22005T   23272.54928084  .00006911  00000-0  45177-3 0  9999,2 51121  53.2177 334.1056 0001475  87.7921 272.3240 15.08849575 94195,6917.851,95.437,540.737,538.696,0.0
51121.0,STARLINK-3399,PAYLOAD,2023-09-30 20:58:39,15.0885395,0.0001555,53.217,328.159,90.1824,269.9347,0.00017781,2.544e-05,0.0,0 STARLINK-3399,1 51121U 22005T   23273.87407110  .00002544  00000-0  17781-3 0  9996,2 51121  53.2170 328.1590 0001555  90.1824 269.9347 15.08853950 95501,6917.838,95.437,540.778,538.627,0.0
51121.0,STARLINK-3399,PAYLOAD,2023-10-01 12:52:31,15.0885339,0.0001567,53.2158,325.185,93.0648,267.0524,0.00031267,4.693e-05,0.0,0 STARLINK-3399,1 51121U 22005T   23274.53647026  .00004693  00000-0  31267-3 0  9994,2 51121  53.2158 325.1850 0001567  93.0648 267.0524 15.08853390 95607,6917.839,95.437,540.788,538.62,0.0
51121.0,STARLINK-3399,PAYLOAD,2023-10-01 20:49:27,15.0883097,0.0001765,53.2172,323.6996,83.3201,276.7992,-0.00011143,-2.061e-05,0.0,0 STARLINK-3399,1 51121U 22005T   23274.86767908 -.00002061  00000-0 -11143-3 0  9992,2 51121  53.2172 323.6996 0001765  83.3201 276.7992 15.08830970 94541,6917.908,95.438,540.994,538.552,0.0
51121.0,STARLINK-3399,PAYLOAD,2023-10-02 20:40:15,15.08834918,0.0001754,53.2167,319.2357,92.1812,267.9381,0.00047347,7.254e-05,0.0,0 STARLINK-3399,1 51121U 22005T   23275.86128861  .00007254  00000-0  47347-3 0  9994,2 51121  53.2167 319.2357 0001754  92.1812 267.9381 15.08834918 94697,6917.896,95.438,540.974,538.548,0.0
51121.0,STARLINK-3399,PAYLOAD,2023-10-03 09:23:20,15.08856318,0.000175,53.2165,316.8566,87.6599,272.4594,0.00099826,0.00015642,0.0,0 STARLINK-3399,1 51121U 22005T   23276.39120535  .00015642  00000-0  99826-3 0  9992,2 51121  53.2165 316.8566 0001750  87.6599 272.4594 15.08856318 95884,6917.831,95.437,540.906,538.485,0.0
51121.0,STARLINK-3399,PAYLOAD,2023-10-03 14:09:29,15.08865925,0.0001766,53.2166,315.9642,87.706,272.4134,0.001072,0.00016826,0.0,0 STARLINK-3399,1 51121U 22005T   23276.58992166  .00016826  00000-0  10720-2 0  9990,2 51121  53.2166 315.9642 0001766  87.7060 272.4134 15.08865925 94806,6917.801,95.436,540.888,538.444,0.0
51121.0,STARLINK-3399,PAYLOAD,2023-10-04 02:52:34,15.08850418,0.0001925,53.2166,313.5855,85.3904,274.7308,0.00037148,5.631e-05,0.0,0 STARLINK-3399,1 51121U 22005T   23277.11984386  .00005631  00000-0  37148-3 0  9991,2 51121  53.2166 313.5855 0001925  85.3904 274.7308 15.08850418 95994,6917.849,95.437,541.045,538.382,0.0
51121.0,STARLINK-3399,PAYLOAD,2023-10-04 09:14:06,15.0885503,0.0001696,53.2167,312.3964,89.4444,270.6743,0.00062691,9.707e-05,0.0,0 STARLINK-3399,1 51121U 22005T   23277.38480188  .00009707  00000-0  62691-3 0  9990,2 51121  53.2167 312.3964 0001696  89.4444 270.6743 15.08855030 94927,6917.834,95.437,540.873,538.526,0.0
51121.0,STARLINK-3399,PAYLOAD,2023-10-04 14:00:16,15.0886083,0.0001721,53.2166,311.5044,90.9297,269.1892,0.00092757,0.00014513,0.0,0 STARLINK-3399,1 51121U 22005T   23277.58352017  .00014513  00000-0  92757-3 0  9998,2 51121  53.2166 311.5044 0001721  90.9297 269.1892 15.08860830 94953,6917.817,95.436,540.872,538.491,0.0
51121.0,STARLINK-3399,PAYLOAD,2023-10-05 09:04:54,15.0884944,0.0001871,53.2169,307.9365,91.752,268.3687,0.0011326,0.00017788,0.0,0 STARLINK-3399,1 51121U 22005T   23278.37840616  .00017788  00000-0  11326-2 0  9992,2 51121  53.2169 307.9365 0001871  91.7520 268.3687 15.08849440 96189,6917.852,95.437,541.011,538.422,0.0
51121.0,STARLINK-3399,PAYLOAD,2023-10-05 18:37:13,15.08836677,0.0002082,53.2168,306.1521,86.2073,273.9157,0.00056435,8.704e-05,0.0,0 STARLINK-3399,1 51121U 22005T   23278.77585027  .00008704  00000-0  56435-3 0  9997,2 51121  53.2168 306.1521 0002082  86.2073 273.9157 15.08836677 96249,6917.891,95.438,541.196,538.315,0.0
51121.0,STARLINK-3399,PAYLOAD,2023-10-06 12:06:27,15.08857802,0.0001572,53.2163,302.8824,88.5281,271.5891,0.0016392,0.00025909,0.0,0 STARLINK-3399,1 51121U 22005T   23279.50448620  .00025909  00000-0  16392-2 0  9999,2 51121  53.2163 302.8824 0001572  88.5281 271.5891 15.08857802 95243,6917.826,95.436,540.778,538.603,0.0
51121.0,STARLINK-3399,PAYLOAD,2023-10-06 18:28:00,15.08844644,0.0001782,53.2169,301.6904,85.7654,274.3542,0.00061849,9.57e-05,0.0,0 STARLINK-3399,1 51121U 22005T   23279.76944941  .00009570  00000-0  61849-3 0  9998,2 51121  53.2169 301.6904 0001782  85.7654 274.3542 15.08844644 96392,6917.866,95.437,540.964,538.498,0.0
51121.0,STARLINK-3399,PAYLOAD,2023-10-07 11:57:14,15.0884826,0.0001864,53.2166,298.4204,90.8571,269.2635,0.00052743,8.118e-05,0.0,0 STARLINK-3399,1 51121U 22005T   23280.49808820  .00008118  00000-0  52743-3 0  9995,2 51121  53.2166 298.4204 0001864  90.8571 269.2635 15.08848260 95394,6917.855,95.437,541.01,538.431,0.0
